{
  "type": "FeatureCollection",
  "features": [
    {
      "type": "Feature",
      "properties": {
        "norad_id": 66610,
        "name": "STARLINK-35680",
        "group": "last-30-days",
        "lat": -17.00253665216863,
        "lon": 11.303942481916767,
        "alt_km": 416.2860041956974,
        "timestamp": "2025-12-16T05:49:07.983878+00:00",
        "meta_object_name": "STARLINK-35680",
        "meta_object_id": "2025-270Y",
        "meta_epoch": "2025-12-15T21:12:28.233504",
        "meta_mean_motion": 15.50596666,
        "meta_eccentricity": 0.00016123,
        "meta_inclination": 42.9984,
        "meta_ra_of_asc_node": 174.2461,
        "meta_arg_of_pericenter": 280.5152,
        "meta_mean_anomaly": 79.5526,
        "meta_ephemeris_type": 0,
        "meta_classification_type": "U",
        "meta_norad_cat_id": 66610,
        "meta_element_set_no": 999,
        "meta_rev_at_epoch": 494,
        "meta_bstar": 0.0011607312,
        "meta_mean_motion_dot": 0.00068394,
        "meta_mean_motion_ddot": 0,
        "tle_line1": "1 66610U 25270Y   25349.88366011  .00068394  00000+0  11607-2 0  9997",
        "tle_line2": "2 66610  42.9984 174.2461 0001612 280.5152  79.5526 15.50596666  4945"
      },
      "geometry": {
        "type": "Point",
        "coordinates": [
          11.303942481916767,
          -17.00253665216863
        ]
      }
    },
    {
      "type": "Feature",
      "properties": {
        "norad_id": 66611,
        "name": "STARLINK-35583",
        "group": "last-30-days",
        "lat": -18.228678687826083,
        "lon": 12.840136150104184,
        "alt_km": 416.1582306136406,
        "timestamp": "2025-12-16T05:49:07.983887+00:00",
        "meta_object_name": "STARLINK-35583",
        "meta_object_id": "2025-270Z",
        "meta_epoch": "2025-12-15T21:11:58.559424",
        "meta_mean_motion": 15.50594696,
        "meta_eccentricity": 0.00017123,
        "meta_inclination": 42.9986,
        "meta_ra_of_asc_node": 174.2435,
        "meta_arg_of_pericenter": 269.9068,
        "meta_mean_anomaly": 90.1596,
        "meta_ephemeris_type": 0,
        "meta_classification_type": "U",
        "meta_norad_cat_id": 66611,
        "meta_element_set_no": 999,
        "meta_rev_at_epoch": 494,
        "meta_bstar": 0.0011028736,
        "meta_mean_motion_dot": 0.00064934,
        "meta_mean_motion_ddot": 0,
        "tle_line1": "1 66611U 25270Z   25349.88331666  .00064934  00000+0  11029-2 0  9990",
        "tle_line2": "2 66611  42.9986 174.2435 0001712 269.9068  90.1596 15.50594696  4944"
      },
      "geometry": {
        "type": "Point",
        "coordinates": [
          12.840136150104184,
          -18.228678687826083
        ]
      }
    },
    {
      "type": "Feature",
      "properties": {
        "norad_id": 66612,
        "name": "STARLINK-36039",
        "group": "last-30-days",
        "lat": 42.80452655750307,
        "lon": -103.8936527141822,
        "alt_km": 438.5491990224491,
        "timestamp": "2025-12-16T05:49:07.983900+00:00",
        "meta_object_name": "STARLINK-36039",
        "meta_object_id": "2025-270AA",
        "meta_epoch": "2025-12-15T22:00:01.999584",
        "meta_mean_motion": 15.40665084,
        "meta_eccentricity": 0.00020106,
        "meta_inclination": 42.9997,
        "meta_ra_of_asc_node": 174.3174,
        "meta_arg_of_pericenter": 269.7093,
        "meta_mean_anomaly": 166.6598,
        "meta_ephemeris_type": 0,
        "meta_classification_type": "U",
        "meta_norad_cat_id": 66612,
        "meta_element_set_no": 999,
        "meta_rev_at_epoch": 491,
        "meta_bstar": 0.0019633233,
        "meta_mean_motion_dot": 0.00082507,
        "meta_mean_motion_ddot": 0,
        "tle_line1": "1 66612U 25270AA  25349.91668981  .00082507  00000+0  19633-2 0  9993",
        "tle_line2": "2 66612  42.9997 174.3174 0002010 269.7093 166.6598 15.40665084  4913"
      },
      "geometry": {
        "type": "Point",
        "coordinates": [
          -103.8936527141822,
          42.80452655750307
        ]
      }
    },
    {
      "type": "Feature",
      "properties": {
        "norad_id": 66613,
        "name": "STARLINK-36037",
        "group": "last-30-days",
        "lat": 39.75877274928677,
        "lon": -70.84829551471934,
        "alt_km": 438.7288264176541,
        "timestamp": "2025-12-16T05:49:07.983910+00:00",
        "meta_object_name": "STARLINK-36037",
        "meta_object_id": "2025-270AB",
        "meta_epoch": "2025-12-15T22:00:01.999584",
        "meta_mean_motion": 15.40665862,
        "meta_eccentricity": 0.00016393,
        "meta_inclination": 42.9995,
        "meta_ra_of_asc_node": 174.2574,
        "meta_arg_of_pericenter": 273.0598,
        "meta_mean_anomaly": 188.1828,
        "meta_ephemeris_type": 0,
        "meta_classification_type": "U",
        "meta_norad_cat_id": 66613,
        "meta_element_set_no": 999,
        "meta_rev_at_epoch": 491,
        "meta_bstar": 0.0020157597,
        "meta_mean_motion_dot": 0.00084744,
        "meta_mean_motion_ddot": 0,
        "tle_line1": "1 66613U 25270AB  25349.91668981  .00084744  00000+0  20158-2 0  9993",
        "tle_line2": "2 66613  42.9995 174.2574 0001639 273.0598 188.1828 15.40665862  4918"
      },
      "geometry": {
        "type": "Point",
        "coordinates": [
          -70.84829551471934,
          39.75877274928677
        ]
      }
    },
    {
      "type": "Feature",
      "properties": {
        "norad_id": 66614,
        "name": "STARLINK-36040",
        "group": "last-30-days",
        "lat": -19.841056412336446,
        "lon": 14.917058366063536,
        "alt_km": 423.0899876253661,
        "timestamp": "2025-12-16T05:49:07.983920+00:00",
        "meta_object_name": "STARLINK-36040",
        "meta_object_id": "2025-270AC",
        "meta_epoch": "2025-12-15T21:10:37.050528",
        "meta_mean_motion": 15.48665597,
        "meta_eccentricity": 0.00013904,
        "meta_inclination": 42.9985,
        "meta_ra_of_asc_node": 174.2343,
        "meta_arg_of_pericenter": 275.5577,
        "meta_mean_anomaly": 84.5123,
        "meta_ephemeris_type": 0,
        "meta_classification_type": "U",
        "meta_norad_cat_id": 66614,
        "meta_element_set_no": 999,
        "meta_rev_at_epoch": 467,
        "meta_bstar": -0.0075644796,
        "meta_mean_motion_dot": -0.00394736,
        "meta_mean_motion_ddot": 0,
        "tle_line1": "1 66614U 25270AC  25349.88237327 -.00394736  00000+0 -75645-2 0  9994",
        "tle_line2": "2 66614  42.9985 174.2343 0001390 275.5577  84.5123 15.48665597  4673"
      },
      "geometry": {
        "type": "Point",
        "coordinates": [
          14.917058366063536,
          -19.841056412336446
        ]
      }
    },
    {
      "type": "Feature",
      "properties": {
        "norad_id": 66615,
        "name": "STARLINK-35988",
        "group": "last-30-days",
        "lat": 21.419888017610138,
        "lon": -32.60888567484499,
        "alt_km": 441.1180922684971,
        "timestamp": "2025-12-16T05:49:07.983930+00:00",
        "meta_object_name": "STARLINK-35988",
        "meta_object_id": "2025-270AD",
        "meta_epoch": "2025-12-15T22:00:01.999584",
        "meta_mean_motion": 15.40657087,
        "meta_eccentricity": 0.00015212,
        "meta_inclination": 42.9994,
        "meta_ra_of_asc_node": 174.1661,
        "meta_arg_of_pericenter": 262.6113,
        "meta_mean_anomaly": 235.9647,
        "meta_ephemeris_type": 0,
        "meta_classification_type": "U",
        "meta_norad_cat_id": 66615,
        "meta_element_set_no": 999,
        "meta_rev_at_epoch": 475,
        "meta_bstar": 0.0017056548,
        "meta_mean_motion_dot": 0.00071515,
        "meta_mean_motion_ddot": 0,
        "tle_line1": "1 66615U 25270AD  25349.91668981  .00071515  00000+0  17057-2 0  9991",
        "tle_line2": "2 66615  42.9994 174.1661 0001521 262.6113 235.9647 15.40657087  4754"
      },
      "geometry": {
        "type": "Point",
        "coordinates": [
          -32.60888567484499,
          21.419888017610138
        ]
      }
    },
    {
      "type": "Feature",
      "properties": {
        "norad_id": 66616,
        "name": "STARLINK-35391",
        "group": "last-30-days",
        "lat": -24.15053026817709,
        "lon": 20.881454613313394,
        "alt_km": 416.3115829685994,
        "timestamp": "2025-12-16T05:49:07.983940+00:00",
        "meta_object_name": "STARLINK-35391",
        "meta_object_id": "2025-270AE",
        "meta_epoch": "2025-12-15T21:09:30.478464",
        "meta_mean_motion": 15.50588525,
        "meta_eccentricity": 0.00017161,
        "meta_inclination": 42.9985,
        "meta_ra_of_asc_node": 174.2291,
        "meta_arg_of_pericenter": 257.1276,
        "meta_mean_anomaly": 102.9393,
        "meta_ephemeris_type": 0,
        "meta_classification_type": "U",
        "meta_norad_cat_id": 66616,
        "meta_element_set_no": 999,
        "meta_rev_at_epoch": 494,
        "meta_bstar": 0.0010628928,
        "meta_mean_motion_dot": 0.00062535,
        "meta_mean_motion_ddot": 0,
        "tle_line1": "1 66616U 25270AE  25349.88160276  .00062535  00000+0  10629-2 0  9992",
        "tle_line2": "2 66616  42.9985 174.2291 0001716 257.1276 102.9393 15.50588525  4943"
      },
      "geometry": {
        "type": "Point",
        "coordinates": [
          20.881454613313394,
          -24.15053026817709
        ]
      }
    }
  ]
}